[{"OBJECT_NAME":"JILIN-1 10","OBJECT_ID":"2019-005E","EPOCH":"2026-03-09T22:11:06.915840","MEAN_MOTION":15.2445874,"ECCENTRICITY":0.00069203,"INCLINATION":97.4731,"RA_OF_ASC_NODE":167.8564,"ARG_OF_PERICENTER":265.2171,"MEAN_ANOMALY":94.8276,"EPHEMERIS_TYPE":0,"CLASSIFICATION_TYPE":"U","NORAD_CAT_ID":43946,"ELEMENT_SET_NO":999,"REV_AT_EPOCH":39418,"BSTAR":0.00035023991,"MEAN_MOTION_DOT":8.535e-5,"MEAN_MOTION_DDOT":0},{"OBJECT_NAME":"LIZZIESAT-3 (LS-3)","OBJECT_ID":"2025-052Z","EPOCH":"2026-03-09T23:14:46.856832","MEAN_MOTION":15.20716998,"ECCENTRICITY":0.00070924,"INCLINATION":97.4033,"RA_OF_ASC_NODE":322.5624,"ARG_OF_PERICENTER":136.4425,"MEAN_ANOMALY":223.7371,"EPHEMERIS_TYPE":0,"CLASSIFICATION_TYPE":"U","NORAD_CAT_ID":63233,"ELEMENT_SET_NO":999,"REV_AT_EPOCH":5472,"BSTAR":0.00032646441,"MEAN_MOTION_DOT":7.117e-5,"MEAN_MOTION_DDOT":0}]
